H1 CPF  1  DLR 2022 03 12 10  5712 technosat            
H2  1704205 6203    42829 2022 03 12 00 00 00 2022 03 19 00 00 00    60 1 1  0 0 0
H9
10 0 59652  43200.000000  0       3663116.308      -5590465.196      -1967248.070
10 0 59652  43260.000000  0       3648578.334      -5734161.879      -1531646.451
10 0 59652  43320.000000  0       3617466.507      -5853420.023      -1089523.763
10 0 59652  43380.000000  0       3570125.193      -5947585.695       -642761.330
10 0 59652  43440.000000  0       3506973.569      -6016115.602       -193261.302
10 0 59652  43500.000000  0       3428502.863      -6058580.184        257061.729
10 0 59652  43560.000000  0       3335273.280      -6074666.183        706289.142
10 0 59652  43620.000000  0       3227910.644      -6064178.709       1152506.823
10 0 59652  43680.000000  0       3107102.630      -6027042.639       1593813.794
10 0 59652  43740.000000  0       2973594.636      -5963303.254       2028330.646
10 0 59652  43800.000000  0       2828185.461      -5873126.448       2454207.767
10 0 59652  43860.000000  0       2671722.670      -5756798.279       2869633.527
10 0 59652  43920.000000  0       2505097.766      -5614723.907       3272842.098
10 0 59652  43980.000000  0       2329241.266      -5447426.054       3662121.119
10 0 59652  44040.000000  0       2145117.575      -5255542.864       4035819.121
10 0 59652  44100.000000  0       1953719.707      -5039825.165       4392352.616
10 0 59652  44160.000000  0       1756063.971      -4801133.169       4730212.773
10 0 59652  44220.000000  0       1553184.661      -4540432.764       5047971.739
10 0 59652  44280.000000  0       1346128.659      -4258791.310       5344288.695
10 0 59652  44340.000000  0       1135949.981      -3957372.850       5617915.404
10 0 59652  44400.000000  0        923704.395      -3637432.919       5867701.220
10 0 59652  44460.000000  0        710444.147      -3300313.003       6092597.639
10 0 59652  44520.000000  0        497212.787      -2947434.686       6291662.400
10 0 59652  44580.000000  0        285040.109      -2580293.451       6464063.167
10 0 59652  44640.000000  0         74937.247      -2200452.163       6609080.686
10 0 59652  44700.000000  0       -132108.046      -1809534.355       6726111.508
10 0 59652  44760.000000  0       -335135.987      -1409217.251       6814670.326
10 0 59652  44820.000000  0       -533219.154      -1001224.465       6874391.793
10 0 59652  44880.000000  0       -725466.619       -587318.551       6905031.820
10 0 59652  44940.000000  0       -911027.910       -169293.395       6906468.419
10 0 59652  45000.000000  0      -1089096.720        251033.519       6878702.045
10 0 59652  45060.000000  0      -1258914.344        671828.971       6821855.484
10 0 59652  45120.000000  0      -1419772.847       1091251.924       6736173.237
10 0 59652  45180.000000  0      -1571017.963       1507461.477       6622020.493
10 0 59652  45240.000000  0      -1712051.745       1918624.885       6479881.617
10 0 59652  45300.000000  0      -1842334.879       2322925.543       6310358.167
10 0 59652  45360.000000  0      -1961388.724       2718570.980       6114166.481
10 0 59652  45420.000000  0      -2068797.034       3103800.775       5892134.743
10 0 59652  45480.000000  0      -2164207.337       3476894.324       5645199.691
10 0 59652  45540.000000  0      -2247332.068       3836178.587       5374402.929
10 0 59652  45600.000000  0      -2317949.375       4180035.684       5080886.700
10 0 59652  45660.000000  0      -2375903.573       4506910.278       4765889.240
10 0 59652  45720.000000  0      -2421105.258       4815316.734       4430739.729
10 0 59652  45780.000000  0      -2453531.120       5103846.040       4076852.844
10 0 59652  45840.000000  0      -2473223.415       5371172.430       3705722.884
10 0 59652  45900.000000  0      -2480289.094       5616059.635       3318917.511
10 0 59652  45960.000000  0      -2474898.601       5837366.748       2918071.197
10 0 59652  46020.000000  0      -2457284.381       6034053.728       2504878.371
10 0 59652  46080.000000  0      -2427739.057       6205186.487       2081086.245
10 0 59652  46140.000000  0      -2386613.295       6349941.489       1648487.373
10 0 59652  46200.000000  0      -2334313.358       6467609.846       1208912.011
10 0 59652  46260.000000  0      -2271298.414       6557600.924        764220.285
10 0 59652  46320.000000  0      -2198077.555       6619445.387        316294.181
10 0 59652  46380.000000  0      -2115206.587       6652797.680       -132970.553
10 0 59652  46440.000000  0      -2023284.605       6657437.972       -581672.596
10 0 59652  46500.000000  0      -1922950.353       6633273.515      -1027913.358
10 0 59652  46560.000000  0      -1814878.322       6580339.295      -1469805.355
10 0 59652  46620.000000  0      -1699774.673       6498797.885      -1905480.376
10 0 59652  46680.000000  0      -1578373.102       6388938.806      -2333097.431
10 0 59652  46740.000000  0      -1451430.564       6251177.303      -2750850.568
10 0 59652  46800.000000  0      -1319722.946       6086052.618      -3156976.468
10 0 59652  46860.000000  0      -1184040.683       5894225.721      -3549761.908
10 0 59652  46920.000000  0      -1045184.351       5676476.428      -3927551.007
10 0 59652  46980.000000  0       -903960.255       5433699.946      -4288752.136
10 0 59652  47040.000000  0       -761176.029       5166902.944      -4631844.486
10 0 59652  47100.000000  0       -617636.278       4877199.185      -4955384.321
10 0 59652  47160.000000  0       -474138.286       4565804.695      -5258010.912
10 0 59652  47220.000000  0       -331467.796       4234032.458      -5538452.109
10 0 59652  47280.000000  0       -190394.901       3883286.686      -5795529.506
10 0 59652  47340.000000  0        -51670.063       3515056.702      -6028163.163
10 0 59652  47400.000000  0         83979.699       3130910.465      -6235375.896
10 0 59652  47460.000000  0        215854.433       2732487.811      -6416297.090
10 0 59652  47520.000000  0        343284.704       2321493.470      -6570166.103
10 0 59652  47580.000000  0        465634.876       1899689.854      -6696335.291
10 0 59652  47640.000000  0        582306.181       1468889.530      -6794272.622
10 0 59652  47700.000000  0        692739.549       1030947.476      -6863563.732
10 0 59652  47760.000000  0        796418.210        587753.267      -6903913.579
10 0 59652  47820.000000  0        892870.083        141223.025      -6915147.717
10 0 59652  47880.000000  0        981669.875       -306708.789      -6897213.012
10 0 59652  47940.000000  0       1062440.934       -754097.583      -6850177.863
10 0 59652  48000.000000  0       1134856.857      -1198996.891      -6774232.031
10 0 59652  48060.000000  0       1198642.803      -1639466.674      -6669686.011
10 0 59652  48120.000000  0       1253576.563      -2073581.612      -6536970.009
10 0 59652  48180.000000  0       1299489.405      -2499439.426      -6376632.489
10 0 59652  48240.000000  0       1336266.595      -2915169.213      -6189338.242
10 0 59652  48300.000000  0       1363847.606      -3318939.775      -5975865.998
10 0 59652  48360.000000  0       1382226.029      -3708967.830      -5737105.445
10 0 59652  48420.000000  0       1391449.241      -4083526.005      -5474053.774
10 0 59652  48480.000000  0       1391617.799      -4440950.601      -5187811.792
10 0 59652  48540.000000  0       1382884.553      -4779649.174      -4879579.663
10 0 59652  48600.000000  0       1365453.457      -5098107.938      -4550652.200
10 0 59652  48660.000000  0       1339578.075      -5394898.911      -4202413.674
10 0 59652  48720.000000  0       1305559.802      -5668686.691      -3836332.130
10 0 59652  48780.000000  0       1263745.842      -5918234.821      -3453953.331
10 0 59652  48840.000000  0       1214526.935      -6142411.768      -3056894.323
10 0 59652  48900.000000  0       1158334.837      -6340196.482      -2646836.640
10 0 59652  48960.000000  0       1095639.579      -6510683.466      -2225519.130
10 0 59652  49020.000000  0       1026946.493      -6653087.304      -1794730.471
10 0 59652  49080.000000  0        952793.007      -6766746.655      -1356301.414
10 0 59652  49140.000000  0        873745.244      -6851127.624       -912096.763
10 0 59652  49200.000000  0        790394.487      -6905826.485       -464007.178
10 0 59652  49260.000000  0        703353.511      -6930571.810        -13940.869
10 0 59652  49320.000000  0        613252.777      -6925225.966        436184.824
10 0 59652  49380.000000  0        520736.533      -6889785.938        884451.940
10 0 59652  49440.000000  0        426458.856      -6824383.489       1328950.403
10 0 59652  49500.000000  0        331079.637      -6729284.669       1767786.537
10 0 59652  49560.000000  0        235260.548      -6604888.604       2199091.492
10 0 59652  49620.000000  0        139661.030      -6451725.600       2621029.552
10 0 59652  49680.000000  0         44934.314      -6270454.552       3031806.226
10 0 59652  49740.000000  0        -48276.556      -6061859.721       3429676.057
10 0 59652  49800.000000  0       -139342.587      -5826846.958       3812950.080
10 0 59652  49860.000000  0       -227652.553      -5566439.495       4180003.064
10 0 59652  49920.000000  0       -312616.633      -5281773.109       4529280.511
10 0 59652  49980.000000  0       -393669.881      -4974090.707       4859305.215
10 0 59652  50040.000000  0       -470275.499      -4644736.527       5168683.380
10 0 59652  50100.000000  0       -541927.936      -4295149.944       5456110.427
10 0 59652  50160.000000  0       -608155.806      -3926858.797       5720376.411
10 0 59652  50220.000000  0       -668524.573      -3541472.298       5960370.903
10 0 59652  50280.000000  0       -722639.012      -3140673.668       6175087.363
10 0 59652  50340.000000  0       -770145.416      -2726212.537       6363627.004
99
